[{"OBJECT_NAME":"STARLINK-1262","OBJECT_ID":"2020-019G","EPOCH":"2026-03-10T00:00:02.999808","MEAN_MOTION":15.29253849,"ECCENTRICITY":9.787e-5,"INCLINATION":53.1531,"RA_OF_ASC_NODE":163.6731,"ARG_OF_PERICENTER":66.1487,"MEAN_ANOMALY":301.9204,"EPHEMERIS_TYPE":0,"CLASSIFICATION_TYPE":"U","NORAD_CAT_ID":45366,"ELEMENT_SET_NO":999,"REV_AT_EPOCH":569,"BSTAR":0.0025443873,"MEAN_MOTION_DOT":0.00073562,"MEAN_MOTION_DDOT":0},{"OBJECT_NAME":"TOMORROW-S4","OBJECT_ID":"2024-247K","EPOCH":"2026-03-09T12:47:35.836224","MEAN_MOTION":15.27717249,"ECCENTRICITY":0.00044343,"INCLINATION":44.9818,"RA_OF_ASC_NODE":117.9996,"ARG_OF_PERICENTER":210.4078,"MEAN_ANOMALY":149.6548,"EPHEMERIS_TYPE":0,"CLASSIFICATION_TYPE":"U","NORAD_CAT_ID":62386,"ELEMENT_SET_NO":999,"REV_AT_EPOCH":6770,"BSTAR":0.00046927249,"MEAN_MOTION_DOT":0.00012677,"MEAN_MOTION_DDOT":0}]
